[{"OBJECT_NAME":"STARLINK-33849","OBJECT_ID":"2025-083W","EPOCH":"2025-08-02T16:52:06.257280","MEAN_MOTION":15.27597303,"ECCENTRICITY":0.0001626,"INCLINATION":42.9951,"RA_OF_ASC_NODE":162.1019,"ARG_OF_PERICENTER":48.2032,"MEAN_ANOMALY":311.8958,"EPHEMERIS_TYPE":0,"CLASSIFICATION_TYPE":"U","NORAD_CAT_ID":63654,"ELEMENT_SET_NO":999,"REV_AT_EPOCH":1657,"BSTAR":0.0016674,"MEAN_MOTION_DOT":0.00045932,"MEAN_MOTION_DDOT":0},{"OBJECT_NAME":"STARLINK-33873","OBJECT_ID":"2025-083X","EPOCH":"2025-08-02T21:36:25.079328","MEAN_MOTION":15.27594932,"ECCENTRICITY":0.0001094,"INCLINATION":42.9986,"RA_OF_ASC_NODE":161.0036,"ARG_OF_PERICENTER":284.599,"MEAN_ANOMALY":75.474,"EPHEMERIS_TYPE":0,"CLASSIFICATION_TYPE":"U","NORAD_CAT_ID":63655,"ELEMENT_SET_NO":999,"REV_AT_EPOCH":1663,"BSTAR":0.0010511,"MEAN_MOTION_DOT":0.00028788,"MEAN_MOTION_DDOT":0},{"OBJECT_NAME":"STARLINK-33772","OBJECT_ID":"2025-083Y","EPOCH":"2025-08-02T05:30:47.313792","MEAN_MOTION":15.27609395,"ECCENTRICITY":0.0001761,"INCLINATION":43.0049,"RA_OF_ASC_NODE":164.5716,"ARG_OF_PERICENTER":278.8981,"MEAN_ANOMALY":81.1671,"EPHEMERIS_TYPE":0,"CLASSIFICATION_TYPE":"U","NORAD_CAT_ID":63656,"ELEMENT_SET_NO":999,"REV_AT_EPOCH":1653,"BSTAR":0.00085331,"MEAN_MOTION_DOT":0.00023315,"MEAN_MOTION_DDOT":0},{"OBJECT_NAME":"STARLINK-33789","OBJECT_ID":"2025-083Z","EPOCH":"2025-08-02T05:19:41.344320","MEAN_MOTION":15.27599764,"ECCENTRICITY":0.0001654,"INCLINATION":43.0009,"RA_OF_ASC_NODE":164.5082,"ARG_OF_PERICENTER":271.0568,"MEAN_ANOMALY":89.0094,"EPHEMERIS_TYPE":0,"CLASSIFICATION_TYPE":"U","NORAD_CAT_ID":63657,"ELEMENT_SET_NO":999,"REV_AT_EPOCH":1653,"BSTAR":0.00089194,"MEAN_MOTION_DOT":0.00024378,"MEAN_MOTION_DDOT":0},{"OBJECT_NAME":"STARLINK-33822","OBJECT_ID":"2025-083AA","EPOCH":"2025-08-02T05:51:08.609760","MEAN_MOTION":15.27596122,"ECCENTRICITY":0.0001858,"INCLINATION":43.0027,"RA_OF_ASC_NODE":164.6673,"ARG_OF_PERICENTER":253.4154,"MEAN_ANOMALY":106.6494,"EPHEMERIS_TYPE":0,"CLASSIFICATION_TYPE":"U","NORAD_CAT_ID":63658,"ELEMENT_SET_NO":999,"REV_AT_EPOCH":1653,"BSTAR":0.00083541,"MEAN_MOTION_DOT":0.00022809,"MEAN_MOTION_DDOT":0},{"OBJECT_NAME":"STARLINK-33771","OBJECT_ID":"2025-083AB","EPOCH":"2025-08-02T05:18:59.378976","MEAN_MOTION":15.27634404,"ECCENTRICITY":0.0002897,"INCLINATION":42.9997,"RA_OF_ASC_NODE":168.0418,"ARG_OF_PERICENTER":251.1424,"MEAN_ANOMALY":108.9114,"EPHEMERIS_TYPE":0,"CLASSIFICATION_TYPE":"U","NORAD_CAT_ID":63659,"ELEMENT_SET_NO":999,"REV_AT_EPOCH":1649,"BSTAR":0.0014077,"MEAN_MOTION_DOT":0.00038746,"MEAN_MOTION_DDOT":0},{"OBJECT_NAME":"STARLINK-33810","OBJECT_ID":"2025-083AC","EPOCH":"2025-08-02T05:06:44.002656","MEAN_MOTION":15.27602146,"ECCENTRICITY":0.0001436,"INCLINATION":42.9994,"RA_OF_ASC_NODE":164.4383,"ARG_OF_PERICENTER":266.0317,"MEAN_ANOMALY":94.037,"EPHEMERIS_TYPE":0,"CLASSIFICATION_TYPE":"U","NORAD_CAT_ID":63660,"ELEMENT_SET_NO":999,"REV_AT_EPOCH":1653,"BSTAR":0.00089186,"MEAN_MOTION_DOT":0.00024378,"MEAN_MOTION_DDOT":0},{"OBJECT_NAME":"STARLINK-33823","OBJECT_ID":"2025-083AD","EPOCH":"2025-08-02T21:27:09.783936","MEAN_MOTION":15.27592374,"ECCENTRICITY":6.66e-5,"INCLINATION":42.996,"RA_OF_ASC_NODE":160.9494,"ARG_OF_PERICENTER":162.8242,"MEAN_ANOMALY":197.2632,"EPHEMERIS_TYPE":0,"CLASSIFICATION_TYPE":"U","NORAD_CAT_ID":63661,"ELEMENT_SET_NO":999,"REV_AT_EPOCH":1663,"BSTAR":0.00067543,"MEAN_MOTION_DOT":0.00018378,"MEAN_MOTION_DDOT":0},{"OBJECT_NAME":"STARLINK-11651 [DTC]","OBJECT_ID":"2025-085A","EPOCH":"2025-08-02T21:16:20.823168","MEAN_MOTION":15.70970692,"ECCENTRICITY":0.0001205,"INCLINATION":42.9985,"RA_OF_ASC_NODE":156.9506,"ARG_OF_PERICENTER":235.8536,"MEAN_ANOMALY":124.2217,"EPHEMERIS_TYPE":0,"CLASSIFICATION_TYPE":"U","NORAD_CAT_ID":63664,"ELEMENT_SET_NO":999,"REV_AT_EPOCH":1583,"BSTAR":0.0015168,"MEAN_MOTION_DOT":0.00200028,"MEAN_MOTION_DDOT":0},{"OBJECT_NAME":"STARLINK-11672 [DTC]","OBJECT_ID":"2025-085B","EPOCH":"2025-08-02T21:08:42.022752","MEAN_MOTION":15.70922229,"ECCENTRICITY":0.0001859,"INCLINATION":43.0018,"RA_OF_ASC_NODE":156.9043,"ARG_OF_PERICENTER":259.0017,"MEAN_ANOMALY":101.0642,"EPHEMERIS_TYPE":0,"CLASSIFICATION_TYPE":"U","NORAD_CAT_ID":63665,"ELEMENT_SET_NO":999,"REV_AT_EPOCH":1643,"BSTAR":0.0012967,"MEAN_MOTION_DOT":0.00169969,"MEAN_MOTION_DDOT":0},{"OBJECT_NAME":"STARLINK-11664 [DTC]","OBJECT_ID":"2025-085C","EPOCH":"2025-08-02T07:18:31.209696","MEAN_MOTION":15.70870765,"ECCENTRICITY":8.79e-5,"INCLINATION":42.9972,"RA_OF_ASC_NODE":161.2083,"ARG_OF_PERICENTER":185.4544,"MEAN_ANOMALY":174.6314,"EPHEMERIS_TYPE":0,"CLASSIFICATION_TYPE":"U","NORAD_CAT_ID":63666,"ELEMENT_SET_NO":999,"REV_AT_EPOCH":1574,"BSTAR":0.0012877,"MEAN_MOTION_DOT":0.00168387,"MEAN_MOTION_DDOT":0},{"OBJECT_NAME":"STARLINK-11666 [DTC]","OBJECT_ID":"2025-085D","EPOCH":"2025-08-02T07:17:12.158016","MEAN_MOTION":15.708331,"ECCENTRICITY":0.0001925,"INCLINATION":42.9986,"RA_OF_ASC_NODE":161.2076,"ARG_OF_PERICENTER":268.7629,"MEAN_ANOMALY":91.3018,"EPHEMERIS_TYPE":0,"CLASSIFICATION_TYPE":"U","NORAD_CAT_ID":63667,"ELEMENT_SET_NO":999,"REV_AT_EPOCH":1564,"BSTAR":0.0026325,"MEAN_MOTION_DOT":0.00351938,"MEAN_MOTION_DDOT":0},{"OBJECT_NAME":"STARLINK-11663 [DTC]","OBJECT_ID":"2025-085E","EPOCH":"2025-08-02T05:37:59.966112","MEAN_MOTION":15.70907893,"ECCENTRICITY":0.0001715,"INCLINATION":42.998,"RA_OF_ASC_NODE":161.5457,"ARG_OF_PERICENTER":274.625,"MEAN_ANOMALY":85.4422,"EPHEMERIS_TYPE":0,"CLASSIFICATION_TYPE":"U","NORAD_CAT_ID":63668,"ELEMENT_SET_NO":999,"REV_AT_EPOCH":1573,"BSTAR":0.0021575,"MEAN_MOTION_DOT":0.00286979,"MEAN_MOTION_DDOT":0},{"OBJECT_NAME":"STARLINK-11595 [DTC]","OBJECT_ID":"2025-085F","EPOCH":"2025-08-02T14:00:01.000224","MEAN_MOTION":15.70880212,"ECCENTRICITY":0.0001659,"INCLINATION":42.9995,"RA_OF_ASC_NODE":159.3699,"ARG_OF_PERICENTER":268.3826,"MEAN_ANOMALY":295.6047,"EPHEMERIS_TYPE":0,"CLASSIFICATION_TYPE":"U","NORAD_CAT_ID":63669,"ELEMENT_SET_NO":999,"REV_AT_EPOCH":604,"BSTAR":-0.00073742,"MEAN_MOTION_DOT":-0.00094167,"MEAN_MOTION_DDOT":0},{"OBJECT_NAME":"STARLINK-11599 [DTC]","OBJECT_ID":"2025-085G","EPOCH":"2025-08-02T20:38:18.236256","MEAN_MOTION":15.71036351,"ECCENTRICITY":0.0001566,"INCLINATION":42.9983,"RA_OF_ASC_NODE":157.6271,"ARG_OF_PERICENTER":240.6232,"MEAN_ANOMALY":119.4479,"EPHEMERIS_TYPE":0,"CLASSIFICATION_TYPE":"U","NORAD_CAT_ID":63670,"ELEMENT_SET_NO":999,"REV_AT_EPOCH":1582,"BSTAR":0.0025335,"MEAN_MOTION_DOT":0.00341139,"MEAN_MOTION_DDOT":0},{"OBJECT_NAME":"STARLINK-11603 [DTC]","OBJECT_ID":"2025-085H","EPOCH":"2025-08-02T20:30:39.489408","MEAN_MOTION":15.70978204,"ECCENTRICITY":0.0001579,"INCLINATION":42.9988,"RA_OF_ASC_NODE":157.5842,"ARG_OF_PERICENTER":231.2986,"MEAN_ANOMALY":128.7741,"EPHEMERIS_TYPE":0,"CLASSIFICATION_TYPE":"U","NORAD_CAT_ID":63671,"ELEMENT_SET_NO":999,"REV_AT_EPOCH":1582,"BSTAR":0.0017706,"MEAN_MOTION_DOT":0.00234632,"MEAN_MOTION_DDOT":0}]
