STARLINK-33849          
1 63654U 25083W   25214.70285020  .00045932  00000+0  16674-2 0  9998
2 63654  42.9951 162.1019 0001626  48.2032 311.8958 15.27597303 16576
STARLINK-33873          
1 63655U 25083X   25214.90029027  .00028788  00000+0  10511-2 0  9998
2 63655  42.9986 161.0036 0001094 284.5990  75.4740 15.27594932 16633
STARLINK-33772          
1 63656U 25083Y   25214.22971428  .00023315  00000+0  85331-3 0  9999
2 63656  43.0049 164.5716 0001761 278.8981  81.1671 15.27609395 16532
STARLINK-33789          
1 63657U 25083Z   25214.22200630  .00024378  00000+0  89194-3 0  9991
2 63657  43.0009 164.5082 0001654 271.0568  89.0094 15.27599764 16536
STARLINK-33822          
1 63658U 25083AA  25214.24384965  .00022809  00000+0  83541-3 0  9995
2 63658  43.0027 164.6673 0001858 253.4154 106.6494 15.27596122 16530
STARLINK-33771          
1 63659U 25083AB  25214.22152059  .00038746  00000+0  14077-2 0  9995
2 63659  42.9997 168.0418 0002897 251.1424 108.9114 15.27634404 16494
STARLINK-33810          
1 63660U 25083AC  25214.21300929  .00024378  00000+0  89186-3 0  9997
2 63660  42.9994 164.4383 0001436 266.0317  94.0370 15.27602146 16530
STARLINK-33823          
1 63661U 25083AD  25214.89386324  .00018378  00000+0  67543-3 0  9991
2 63661  42.9960 160.9494 0000666 162.8242 197.2632 15.27592374 16631
STARLINK-11651 [DTC]    
1 63664U 25085A   25214.88635212  .00200028  00000+0  15168-2 0  9998
2 63664  42.9985 156.9506 0001205 235.8536 124.2217 15.70970692 15838
STARLINK-11672 [DTC]    
1 63665U 25085B   25214.88104193  .00169969  00000+0  12967-2 0  9990
2 63665  43.0018 156.9043 0001859 259.0017 101.0642 15.70922229 16436
STARLINK-11664 [DTC]    
1 63666U 25085C   25214.30452789  .00168387  00000+0  12877-2 0  9998
2 63666  42.9972 161.2083 0000879 185.4544 174.6314 15.70870765 15747
STARLINK-11666 [DTC]    
1 63667U 25085D   25214.30361294  .00351938  00000+0  26325-2 0  9998
2 63667  42.9986 161.2076 0001925 268.7629  91.3018 15.70833100 15644
STARLINK-11663 [DTC]    
1 63668U 25085E   25214.23472183  .00286979  00000+0  21575-2 0  9995
2 63668  42.9980 161.5457 0001715 274.6250  85.4422 15.70907893 15732
STARLINK-11595 [DTC]    
1 63669U 25085F   25214.58334491 -.00094167  00000+0 -73742-3 0  9995
2 63669  42.9995 159.3699 0001659 268.3826 295.6047 15.70880212  6045
STARLINK-11599 [DTC]    
1 63670U 25085G   25214.85993329  .00341139  00000+0  25335-2 0  9994
2 63670  42.9983 157.6271 0001566 240.6232 119.4479 15.71036351 15828
STARLINK-11603 [DTC]    
1 63671U 25085H   25214.85462372  .00234632  00000+0  17706-2 0  9996
2 63671  42.9988 157.5842 0001579 231.2986 128.7741 15.70978204 15829
